start=new Date('2022-05-02T00:00:00.000Z').valueOf();
sats=[{"INCLINATION":"53.0549","OBJECT_NAME":"STARLINK-1686","MEAN_MOTION_DDOT":"0.0000000000000","OBJECT_ID":"2020-062D","GP_ID":"202471528","MEAN_ANOMALY":"323.8626","OBJECT_TYPE":"PAYLOAD","CENTER_NAME":"EARTH","ECCENTRICITY":"0.00021000","REV_AT_EPOCH":"9235","REF_FRAME":"TEME","FILE":"3424759","MEAN_MOTION_DOT":"-0.00001613","DECAY_DATE":null,"TLE_LINE1":"1 46328U 20062D   22121.57202473 -.00001613  00000-0 -89420-4 0  9991","LAUNCH_DATE":"2020-09-03","COUNTRY_CODE":"US","EPHEMERIS_TYPE":"0","SITE":"AFETR","TLE_LINE2":"2 46328  53.0549 197.9101 0002100  36.2505 323.8626 15.06377673 92357","PERIAPSIS":"545.828","BSTAR":"-0.00008942000000","RA_OF_ASC_NODE":"197.9101","RCS_SIZE":"LARGE","APOAPSIS":"548.736","ARG_OF_PERICENTER":"36.2505","TIME_SYSTEM":"UTC","SEMIMAJOR_AXIS":"6925.417","MEAN_ELEMENT_THEORY":"SGP4","MEAN_MOTION":"15.06377673","NORAD_CAT_ID":"46328","PERIOD":"95.594","ELEMENT_SET_NO":"999","CLASSIFICATION_TYPE":"U","EPOCH":"2022-05-01T13:43:42.936672"},{"SITE":"AFETR","TLE_LINE2":"2 46329  53.0543 197.7522 0001895  52.5138 307.6023 15.06396842 92350","PERIAPSIS":"545.911","COUNTRY_CODE":"US","EPHEMERIS_TYPE":"0","LAUNCH_DATE":"2020-09-03","DECAY_DATE":null,"TLE_LINE1":"1 46329U 20062E   22121.60518195  .00000337  00000-0  41510-4 0  9995","MEAN_MOTION_DOT":"0.00000337","FILE":"3424759","REF_FRAME":"TEME","ECCENTRICITY":"0.00018950","REV_AT_EPOCH":"9235","OBJECT_TYPE":"PAYLOAD","MEAN_ANOMALY":"307.6023","CENTER_NAME":"EARTH","GP_ID":"202471771","OBJECT_ID":"2020-062E","OBJECT_NAME":"STARLINK-1695","MEAN_MOTION_DDOT":"0.0000000000000","INCLINATION":"53.0543","EPOCH":"2022-05-01T14:31:27.720480","CLASSIFICATION_TYPE":"U","PERIOD":"95.592","ELEMENT_SET_NO":"999","NORAD_CAT_ID":"46329","MEAN_ELEMENT_THEORY":"SGP4","MEAN_MOTION":"15.06396842","SEMIMAJOR_AXIS":"6925.358","ARG_OF_PERICENTER":"52.5138","TIME_SYSTEM":"UTC","RCS_SIZE":"LARGE","APOAPSIS":"548.536","BSTAR":"0.00004151000000","RA_OF_ASC_NODE":"197.7522"},{"ARG_OF_PERICENTER":"53.5816","TIME_SYSTEM":"UTC","APOAPSIS":"548.455","RCS_SIZE":"LARGE","RA_OF_ASC_NODE":"197.4979","BSTAR":"-0.00005113500000","MEAN_MOTION":"15.06378911","MEAN_ELEMENT_THEORY":"SGP4","SEMIMAJOR_AXIS":"6925.413","ELEMENT_SET_NO":"999","PERIOD":"95.593","NORAD_CAT_ID":"46330","EPOCH":"2022-05-01T15:51:05.563584","CLASSIFICATION_TYPE":"U","GP_ID":"202470528","OBJECT_ID":"2020-062F","MEAN_MOTION_DDOT":"0.0000000000000","OBJECT_NAME":"STARLINK-1710","INCLINATION":"53.0536","FILE":"3424759","REF_FRAME":"TEME","REV_AT_EPOCH":"9237","ECCENTRICITY":"0.00016990","CENTER_NAME":"EARTH","MEAN_ANOMALY":"306.5330","OBJECT_TYPE":"PAYLOAD","DECAY_DATE":null,"TLE_LINE1":"1 46330U 20062F   22121.66048106 -.00001043  00000-0 -51135-4 0  9994","MEAN_MOTION_DOT":"-0.00001043","PERIAPSIS":"546.102","TLE_LINE2":"2 46330  53.0536 197.4979 0001699  53.5816 306.5330 15.06378911 92371","SITE":"AFETR","COUNTRY_CODE":"US","EPHEMERIS_TYPE":"0","LAUNCH_DATE":"2020-09-03"},{"OBJECT_TYPE":"PAYLOAD","MEAN_ANOMALY":"299.6630","CENTER_NAME":"EARTH","ECCENTRICITY":"0.00014940","REV_AT_EPOCH":"9210","REF_FRAME":"TEME","FILE":"3424759","INCLINATION":"53.0531","OBJECT_NAME":"STARLINK-1719","MEAN_MOTION_DDOT":"0.0000000000000","OBJECT_ID":"2020-062G","GP_ID":"202471279","LAUNCH_DATE":"2020-09-03","COUNTRY_CODE":"US","EPHEMERIS_TYPE":"0","SITE":"AFETR","TLE_LINE2":"2 46331  53.0531 217.0522 0001494  60.4508 299.6630 15.06384932 92104","PERIAPSIS":"546.225","MEAN_MOTION_DOT":"0.00000461","TLE_LINE1":"1 46331U 20062G   22121.76184156  .00000461  00000-0  49834-4 0  9996","DECAY_DATE":null,"SEMIMAJOR_AXIS":"6925.395","MEAN_ELEMENT_THEORY":"SGP4","MEAN_MOTION":"15.06384932","BSTAR":"0.00004983400000","RA_OF_ASC_NODE":"217.0522","RCS_SIZE":"LARGE","APOAPSIS":"548.294","ARG_OF_PERICENTER":"60.4508","TIME_SYSTEM":"UTC","CLASSIFICATION_TYPE":"U","EPOCH":"2022-05-01T18:17:03.110784","NORAD_CAT_ID":"46331","PERIOD":"95.593","ELEMENT_SET_NO":"999"},{"LAUNCH_DATE":"2020-09-03","COUNTRY_CODE":"US","EPHEMERIS_TYPE":"0","SITE":"AFETR","TLE_LINE2":"2 46332  53.0550 217.3072 0001569  48.5967 311.5157 15.06393764 92097","PERIAPSIS":"546.146","MEAN_MOTION_DOT":"0.00007888","TLE_LINE1":"1 46332U 20062H   22121.70655327  .00007888  00000-0  54791-3 0  9991","DECAY_DATE":null,"OBJECT_TYPE":"PAYLOAD","MEAN_ANOMALY":"311.5157","CENTER_NAME":"EARTH","ECCENTRICITY":"0.00015690","REV_AT_EPOCH":"9209","REF_FRAME":"TEME","FILE":"3424759","INCLINATION":"53.0550","OBJECT_NAME":"STARLINK-1721","MEAN_MOTION_DDOT":"0.0000000000000","OBJECT_ID":"2020-062H","GP_ID":"202472029","CLASSIFICATION_TYPE":"U","EPOCH":"2022-05-01T16:57:26.202528","NORAD_CAT_ID":"46332","PERIOD":"95.593","ELEMENT_SET_NO":"999","SEMIMAJOR_AXIS":"6925.368","MEAN_ELEMENT_THEORY":"SGP4","MEAN_MOTION":"15.06393764","BSTAR":"0.00054791000000","RA_OF_ASC_NODE":"217.3072","RCS_SIZE":"LARGE","APOAPSIS":"548.319","TIME_SYSTEM":"UTC","ARG_OF_PERICENTER":"48.5967"},{"GP_ID":"202472272","OBJECT_ID":"2020-062J","OBJECT_NAME":"STARLINK-1723","MEAN_MOTION_DDOT":"0.0000000000000","INCLINATION":"53.0551","FILE":"3424759","REF_FRAME":"TEME","ECCENTRICITY":"0.00016270","REV_AT_EPOCH":"9209","OBJECT_TYPE":"PAYLOAD","MEAN_ANOMALY":"300.5237","CENTER_NAME":"EARTH","TLE_LINE1":"1 46333U 20062J   22121.72129007  .00001061  00000-0  90137-4 0  9997","DECAY_DATE":null,"MEAN_MOTION_DOT":"0.00001061","SITE":"AFETR","TLE_LINE2":"2 46333  53.0551 217.2429 0001627  59.5913 300.5237 15.06395791 92091","PERIAPSIS":"546.100","EPHEMERIS_TYPE":"0","COUNTRY_CODE":"US","LAUNCH_DATE":"2020-09-03","TIME_SYSTEM":"UTC","ARG_OF_PERICENTER":"59.5913","RCS_SIZE":"LARGE","APOAPSIS":"548.353","BSTAR":"0.00009013700000","RA_OF_ASC_NODE":"217.2429","MEAN_ELEMENT_THEORY":"SGP4","MEAN_MOTION":"15.06395791","SEMIMAJOR_AXIS":"6925.361","PERIOD":"95.592","ELEMENT_SET_NO":"999","NORAD_CAT_ID":"46333","EPOCH":"2022-05-01T17:18:39.462048","CLASSIFICATION_TYPE":"U"},{"REF_FRAME":"TEME","FILE":"3424759","CENTER_NAME":"EARTH","MEAN_ANOMALY":"315.6492","OBJECT_TYPE":"PAYLOAD","REV_AT_EPOCH":"9237","ECCENTRICITY":"0.00017700","OBJECT_ID":"2020-062K","GP_ID":"202471029","INCLINATION":"53.0537","MEAN_MOTION_DDOT":"0.0000000000000","OBJECT_NAME":"STARLINK-1725","EPHEMERIS_TYPE":"0","COUNTRY_CODE":"US","PERIAPSIS":"546.016","TLE_LINE2":"2 46334  53.0537 197.3373 0001770  44.4639 315.6492 15.06390907 92374","SITE":"AFETR","LAUNCH_DATE":"2020-09-03","DECAY_DATE":null,"TLE_LINE1":"1 46334U 20062K   22121.69639136  .00002122  00000-0  16135-3 0  9997","MEAN_MOTION_DOT":"0.00002122","MEAN_MOTION":"15.06390907","MEAN_ELEMENT_THEORY":"SGP4","SEMIMAJOR_AXIS":"6925.376","APOAPSIS":"548.467","RCS_SIZE":"LARGE","TIME_SYSTEM":"UTC","ARG_OF_PERICENTER":"44.4639","RA_OF_ASC_NODE":"197.3373","BSTAR":"0.00016135000000","CLASSIFICATION_TYPE":"U","EPOCH":"2022-05-01T16:42:48.213504","NORAD_CAT_ID":"46334","ELEMENT_SET_NO":"999","PERIOD":"95.593"},{"APOAPSIS":"548.598","RCS_SIZE":"LARGE","TIME_SYSTEM":"UTC","ARG_OF_PERICENTER":"51.4543","RA_OF_ASC_NODE":"217.1106","BSTAR":"0.00053279000000","MEAN_MOTION":"15.06385411","MEAN_ELEMENT_THEORY":"SGP4","SEMIMAJOR_AXIS":"6925.393","NORAD_CAT_ID":"46335","ELEMENT_SET_NO":"999","PERIOD":"95.593","CLASSIFICATION_TYPE":"U","EPOCH":"2022-05-01T18:01:08.714784","OBJECT_ID":"2020-062L","GP_ID":"202471280","INCLINATION":"53.0553","MEAN_MOTION_DDOT":"0.0000000000000","OBJECT_NAME":"STARLINK-1727","REF_FRAME":"TEME","FILE":"3424759","CENTER_NAME":"EARTH","OBJECT_TYPE":"PAYLOAD","MEAN_ANOMALY":"308.6619","REV_AT_EPOCH":"9210","ECCENTRICITY":"0.00019340","TLE_LINE1":"1 46335U 20062L   22121.75079531  .00007660  00000-0  53279-3 0  9994","DECAY_DATE":null,"MEAN_MOTION_DOT":"0.00007660","EPHEMERIS_TYPE":"0","COUNTRY_CODE":"US","TLE_LINE2":"2 46335  53.0553 217.1106 0001934  51.4543 308.6619 15.06385411 92100","PERIAPSIS":"545.919","SITE":"AFETR","LAUNCH_DATE":"2020-09-03"},{"SEMIMAJOR_AXIS":"6925.373","MEAN_MOTION":"15.06392065","MEAN_ELEMENT_THEORY":"SGP4","RA_OF_ASC_NODE":"198.0426","BSTAR":"0.00028003000000","ARG_OF_PERICENTER":"45.4988","TIME_SYSTEM":"UTC","APOAPSIS":"548.438","RCS_SIZE":"LARGE","EPOCH":"2022-05-01T13:01:14.357856","CLASSIFICATION_TYPE":"U","ELEMENT_SET_NO":"999","PERIOD":"95.593","NORAD_CAT_ID":"46336","REV_AT_EPOCH":"9234","ECCENTRICITY":"0.00017330","CENTER_NAME":"EARTH","MEAN_ANOMALY":"314.6143","OBJECT_TYPE":"PAYLOAD","FILE":"3424759","REF_FRAME":"TEME","MEAN_MOTION_DDOT":"0.0000000000000","OBJECT_NAME":"STARLINK-1738","INCLINATION":"53.0524","GP_ID":"202471529","OBJECT_ID":"2020-062M","LAUNCH_DATE":"2020-09-03","PERIAPSIS":"546.038","TLE_LINE2":"2 46336  53.0524 198.0426 0001733  45.4988 314.6143 15.06392065 92342","SITE":"AFETR","COUNTRY_CODE":"US","EPHEMERIS_TYPE":"0","MEAN_MOTION_DOT":"0.00003891","TLE_LINE1":"1 46336U 20062M   22121.54252729  .00003891  00000-0  28003-3 0  9993","DECAY_DATE":null},{"LAUNCH_DATE":"2020-09-03","COUNTRY_CODE":"US","EPHEMERIS_TYPE":"0","TLE_LINE2":"2 46337  53.0561 197.3750 0001913  45.7524 314.3622 15.06388856 92370","PERIAPSIS":"545.923","SITE":"AFETR","MEAN_MOTION_DOT":"0.00000834","DECAY_DATE":null,"TLE_LINE1":"1 46337U 20062N   22121.68996944  .00000834  00000-0  74925-4 0  9992","CENTER_NAME":"EARTH","OBJECT_TYPE":"PAYLOAD","MEAN_ANOMALY":"314.3622","REV_AT_EPOCH":"9237","ECCENTRICITY":"0.00019130","REF_FRAME":"TEME","FILE":"3424759","INCLINATION":"53.0561","MEAN_MOTION_DDOT":"0.0000000000000","OBJECT_NAME":"STARLINK-1750","OBJECT_ID":"2020-062N","GP_ID":"202471772","CLASSIFICATION_TYPE":"U","EPOCH":"2022-05-01T16:33:33.359616","NORAD_CAT_ID":"46337","ELEMENT_SET_NO":"999","PERIOD":"95.593","SEMIMAJOR_AXIS":"6925.383","MEAN_MOTION":"15.06388856","MEAN_ELEMENT_THEORY":"SGP4","RA_OF_ASC_NODE":"197.3750","BSTAR":"0.00007492500000","APOAPSIS":"548.573","RCS_SIZE":"LARGE","TIME_SYSTEM":"UTC","ARG_OF_PERICENTER":"45.7524"}];
